{
  "type": "FeatureCollection",
  "features": [
    {
      "type": "Feature",
      "id": "Mukim Ampang",
      "properties": {
        "name": "Mukim Ampang",
        "label_lat": 3.13,
        "label_lon": 101.75
      },
      "geometry": {
        "type": "Polygon",
        "coordinates": [[
          [101.72, 3.25],
          [101.82, 3.25],
          [101.84, 3.18],
          [101.82, 3.08],
          [101.76, 3.04],
          [101.70, 3.08],
          [101.72, 3.25]
        ]]
      }
    },
    {
      "type": "Feature",
      "id": "Mukim Batu",
      "properties": {
        "name": "Mukim Batu",
        "label_lat": 3.23,
        "label_lon": 101.65
      },
      "geometry": {
        "type": "Polygon",
        "coordinates": [[
          [101.58, 3.32],
          [101.72, 3.28],
          [101.72, 3.25],
          [101.70, 3.08],
          [101.60, 3.10],
          [101.55, 3.20],
          [101.58, 3.32]
        ]]
      }
    },
    {
      "type": "Feature",
      "id": "Mukim Cheras",
      "properties": {
        "name": "Mukim Cheras",
        "label_lat": 3.06,
        "label_lon": 101.75
      },
      "geometry": {
        "type": "Polygon",
        "coordinates": [[
          [101.70, 3.08],
          [101.82, 3.08],
          [101.84, 2.98],
          [101.76, 2.90],
          [101.70, 2.96],
          [101.70, 3.08]
        ]]
      }
    },
    {
      "type": "Feature",
      "id": "Kuala Lumpur Town Centre",
      "properties": {
        "name": "Kuala Lumpur Town Centre",
        "label_lat": 3.14,
        "label_lon": 101.69
      },
      "geometry": {
        "type": "Polygon",
        "coordinates": [[
          [101.66, 3.19],
          [101.72, 3.17],
          [101.70, 3.08],
          [101.64, 3.10],
          [101.66, 3.19]
        ]]
      }
    },
    {
      "type": "Feature",
      "id": "Mukim Kuala Lumpur",
      "properties": {
        "name": "Mukim Kuala Lumpur",
        "label_lat": 3.12,
        "label_lon": 101.63
      },
      "geometry": {
        "type": "Polygon",
        "coordinates": [[
          [101.58, 3.15],
          [101.66, 3.19],
          [101.64, 3.10],
          [101.60, 3.05],
          [101.55, 3.08],
          [101.58, 3.15]
        ]]
      }
    },
    {
      "type": "Feature",
      "id": "Mukim Petaling",
      "properties": {
        "name": "Mukim Petaling",
        "label_lat": 3.02,
        "label_lon": 101.60
      },
      "geometry": {
        "type": "Polygon",
        "coordinates": [[
          [101.55, 3.08],
          [101.60, 3.05],
          [101.70, 2.96],
          [101.76, 2.90],
          [101.72, 2.80],
          [101.60, 2.82],
          [101.55, 2.92],
          [101.55, 3.08]
        ]]
      }
    },
    {
      "type": "Feature",
      "id": "Mukim Setapak",
      "properties": {
        "name": "Mukim Setapak",
        "label_lat": 3.23,
        "label_lon": 101.73
      },
      "geometry": {
        "type": "Polygon",
        "coordinates": [[
          [101.70, 3.25],
          [101.82, 3.25],
          [101.84, 3.30],
          [101.76, 3.36],
          [101.70, 3.32],
          [101.70, 3.25]
        ]]
      }
    },
    {
      "type": "Feature",
      "id": "Mukim Ulu Kelang",
      "properties": {
        "name": "Mukim Ulu Kelang",
        "label_lat": 3.28,
        "label_lon": 101.80
      },
      "geometry": {
        "type": "Polygon",
        "coordinates": [[
          [101.76, 3.36],
          [101.84, 3.30],
          [101.88, 3.32],
          [101.88, 3.25],
          [101.84, 3.18],
          [101.82, 3.25],
          [101.76, 3.36]
        ]]
      }
    }
  ]
}
